[{"OBJECT_NAME":"TEVEL2-2","OBJECT_ID":"2025-052K","EPOCH":"2026-03-09T15:33:48.895776","MEAN_MOTION":15.30343745,"ECCENTRICITY":0.0004693,"INCLINATION":97.3987,"RA_OF_ASC_NODE":324.77,"ARG_OF_PERICENTER":105.793,"MEAN_ANOMALY":254.3828,"EPHEMERIS_TYPE":0,"CLASSIFICATION_TYPE":"U","NORAD_CAT_ID":63219,"ELEMENT_SET_NO":999,"REV_AT_EPOCH":5485,"BSTAR":0.00069428,"MEAN_MOTION_DOT":0.00020339,"MEAN_MOTION_DDOT":0},{"OBJECT_NAME":"STARLINK-35497","OBJECT_ID":"2025-245H","EPOCH":"2026-03-09T21:48:47.775456","MEAN_MOTION":15.3022131,"ECCENTRICITY":0.00010614,"INCLINATION":53.1589,"RA_OF_ASC_NODE":282.6277,"ARG_OF_PERICENTER":131.5036,"MEAN_ANOMALY":228.6056,"EPHEMERIS_TYPE":0,"CLASSIFICATION_TYPE":"U","NORAD_CAT_ID":66241,"ELEMENT_SET_NO":999,"REV_AT_EPOCH":2124,"BSTAR":0.0011578671,"MEAN_MOTION_DOT":0.00034114,"MEAN_MOTION_DDOT":0}]
